SMILE                   
1 69123U 26109A   26158.38327019 -.00000041  00000+0 -36778-3 0  9994
2 69123  69.9787 209.3069 3310191 288.5544  45.7342  7.54049028  2480
STARLINK-37726          
1 69124U 26110A   26168.49156907  .00028246  00000+0  51871-3 0  9992
2 69124  97.2837   4.7119 0001524  87.8729 272.2696 15.49213090  5648
STARLINK-37722          
1 69125U 26110B   26166.55038854  .00028583  00000+0  52493-3 0  9993
2 69125  97.2822   2.9146 0001731  97.0248 263.1200 15.49208597  5356
STARLINK-37715          
1 69126U 26110C   26168.49981748  .00022200  00000+0  68784-3 0  9998
2 69126  97.2841   4.8560 0002031  79.4354 280.7118 15.33449985  5652
STARLINK-37706          
1 69127U 26110D   26168.49709601  .00011944  00000+0  37162-3 0  9994
2 69127  97.2841   4.8602 0001973  91.7666 268.3802 15.33452277  5657
STARLINK-37723          
1 69128U 26110E   26168.49437744  .00011786  00000+0  36669-3 0  9996
2 69128  97.2838   4.8625 0001707  86.9366 273.2072 15.33455557  5655
STARLINK-37720          
1 69129U 26110F   26168.48278638  .00038735  00000+0  70979-3 0  9996
2 69129  97.2837   4.7251 0001911  87.3291 272.8179 15.49211419  5644
STARLINK-37533          
1 69130U 26110G   26168.50003471  .00059621  00000+0  18374-2 0  9999
2 69130  97.2846   4.8891 0001549  87.9768 348.4066 15.33396204  5700
STARLINK-37530          
1 69131U 26110H   26168.50003471  .00053646  00000+0  16537-2 0  9990
2 69131  97.2845   4.8954 0001957  86.7030   4.6500 15.33417086  5708
STARLINK-37660          
1 69132U 26110J   26168.50003471  .00067419  00000+0  18546-2 0  9996
2 69132  97.2851   4.8886 0001821  83.0551 352.5905 15.36937629  5705
STARLINK-37633          
1 69133U 26110K   26168.50003471 -.02971664  00000+0 -91543-1 0  9994
2 69133  97.2847   4.9128 0002394  66.9421  50.0079 15.37530309  5700
STARLINK-37361          
1 69134U 26110L   26168.50003471  .00053338  00000+0  16440-2 0  9994
2 69134  97.2847   4.9144 0002069  82.6485  53.6922 15.33422575  5700
STARLINK-37372          
1 69135U 26110M   26168.50003471  .00071584  00000+0  19689-2 0  9996
2 69135  97.2848   4.9098 0001187  58.0288  70.0274 15.36922873  5700
STARLINK-37531          
1 69136U 26110N   26168.50003471  .00051388  00000+0  15843-2 0  9995
2 69136  97.2847   4.9266 0001795  90.3245  75.9987 15.33424030  5708
STARLINK-37662          
1 69137U 26110P   26168.50003471  .00073017  00000+0  20078-2 0  9995
2 69137  97.2848   4.9122 0001217  73.6630  63.9502 15.36924670  5700
STARLINK-37658          
1 69138U 26110Q   26168.49539764  .00041554  00000+0  76108-3 0  9990
2 69138  97.2837   4.8620 0001546  93.7562 266.3866 15.49211271  5659
STARLINK-37659          
1 69139U 26110R   26168.50309258  .00029471  00000+0  54109-3 0  9997
2 69139  97.2835   4.8520 0001615  70.4826 289.6599 15.49211344  5651
STARLINK-37653          
1 69140U 26110S   26168.50555674  .00037357  00000+0  68450-3 0  9990
2 69140  97.2836   4.8487 0001591  99.1299 261.0132 15.49221016  5655
STARLINK-37654          
1 69141U 26110T   26166.52422448  .00038342  00000+0  70164-3 0  9993
2 69141  97.2827   2.9503 0001818  88.7991 271.3469 15.49252690  5355
STARLINK-37655          
1 69142U 26110U   26168.50003471  .00060056  00000+0  16529-2 0  9996
2 69142  97.2849   4.9481 0001175  89.0669 130.3590 15.36955380  5709
STARLINK-37636          
1 69143U 26110V   26168.50003471  .00055959  00000+0  17240-2 0  9994
2 69143  97.2844   4.9717 0002047  74.5842 196.6387 15.33422355  5705
STARLINK-37638          
1 69144U 26110W   26168.50003471  .00052634  00000+0  16226-2 0  9995
2 69144  97.2844   4.9780 0001267  81.7358 204.6081 15.33419883  5704
STARLINK-37657          
1 69145U 26110X   26168.52679561  .00031248  00000+0  57347-3 0  9995
2 69145  97.2820   4.9711 0001303  96.0721 264.0679 15.49212420  5660
STARLINK-37639          
1 69146U 26110Y   26168.50003471  .00066600  00000+0  20501-2 0  9996
2 69146  97.2845   4.9921 0001543  75.8425 240.3957 15.33399328  5755
STARLINK-37661          
1 69147U 26110Z   26168.48365609  .00033331  00000+0  61146-3 0  9994
2 69147  97.2808   4.8746 0001877  86.9639 273.1827 15.49210009  5653
STARLINK-37395          
1 69148U 26111A   26168.50003471 -.01582333  00000+0 -22956-1 0  9993
2 69148  53.1599 150.6167 0001524 107.6149 222.7770 15.58508085  5601
STARLINK-37346          
1 69149U 26111B   26168.50003471  .00031875  00000+0  57911-3 0  9992
2 69149  53.1598 151.3233 0001273  84.5644 256.5764 15.49295069  5600
STARLINK-37332          
1 69150U 26111C   26168.14519794  .00044278  00000+0  79880-3 0  9994
2 69150  53.1605 153.3440 0001177  97.5302 262.5841 15.49339469  4235
STARLINK-37297          
1 69151U 26111D   26168.50003471 -.02095062  00000+0 -37571-1 0  9995
2 69151  53.1596 150.6111 0001345  92.2602 240.2256 15.52674005  5609
STARLINK-37317          
1 69152U 26111E   26168.50003471 -.02455840  00000+0 -37630-1 0  9996
2 69152  53.1602 150.4216 0000886  86.8730 338.6864 15.57500497  5607
